{
  "type": "FeatureCollection",
  "features": [
    {
      "type": "Feature",
      "properties": {
        "norad_id": 28054,
        "name": "DMSP 5D-3 F16 (USA 172)",
        "group": "weather",
        "lat": -63.972354432571564,
        "lon": 30.77820640354903,
        "alt_km": 846.8782259906075,
        "timestamp": "2025-12-20T07:33:50.443286+00:00",
        "meta_object_name": "DMSP 5D-3 F16 (USA 172)",
        "meta_object_id": "2003-048A",
        "meta_epoch": "2025-12-19T22:00:09.822240",
        "meta_mean_motion": 14.14426642,
        "meta_eccentricity": 0.00063034,
        "meta_inclination": 99.0039,
        "meta_ra_of_asc_node": 11.4301,
        "meta_arg_of_pericenter": 298.0236,
        "meta_mean_anomaly": 129.1206,
        "meta_ephemeris_type": 0,
        "meta_classification_type": "U",
        "meta_norad_cat_id": 28054,
        "meta_element_set_no": 999,
        "meta_rev_at_epoch": 14414,
        "meta_bstar": 6.8286002e-05,
        "meta_mean_motion_dot": 8.5e-07,
        "meta_mean_motion_ddot": 0,
        "tle_line1": "1 28054U 03048A   25353.91678035  .00000085  00000+0  68286-4 0  9997",
        "tle_line2": "2 28054  99.0039  11.4301 0006303 298.0236 129.1206 14.14426642144142"
      },
      "geometry": {
        "type": "Point",
        "coordinates": [
          30.77820640354903,
          -63.972354432571564
        ]
      }
    },
    {
      "type": "Feature",
      "properties": {
        "norad_id": 28912,
        "name": "METEOSAT-9 (MSG-2)",
        "group": "weather",
        "lat": -1.6494179283511634,
        "lon": -113.68785641179663,
        "alt_km": 35794.85626912866,
        "timestamp": "2025-12-20T07:33:50.443363+00:00",
        "meta_object_name": "METEOSAT-9 (MSG-2)",
        "meta_object_id": "2005-049B",
        "meta_epoch": "2025-12-18T20:21:29.033280",
        "meta_mean_motion": 1.00264866,
        "meta_eccentricity": 0.0082047,
        "meta_inclination": 8.9417,
        "meta_ra_of_asc_node": 55.9014,
        "meta_arg_of_pericenter": 282.314,
        "meta_mean_anomaly": 99.6592,
        "meta_ephemeris_type": 0,
        "meta_classification_type": "U",
        "meta_norad_cat_id": 28912,
        "meta_element_set_no": 999,
        "meta_rev_at_epoch": 519,
        "meta_bstar": 0,
        "meta_mean_motion_dot": 1.45e-06,
        "meta_mean_motion_ddot": 0,
        "tle_line1": "1 28912U 05049B   25352.84825270  .00000145  00000+0  00000+0 0  9991",
        "tle_line2": "2 28912   8.9417  55.9014 0082047 282.3140  99.6592  1.00264866  5196"
      },
      "geometry": {
        "type": "Point",
        "coordinates": [
          -113.68785641179663,
          -1.6494179283511634
        ]
      }
    },
    {
      "type": "Feature",
      "properties": {
        "norad_id": 29522,
        "name": "DMSP 5D-3 F17 (USA 191)",
        "group": "weather",
        "lat": -66.78645780889553,
        "lon": 158.52954184151673,
        "alt_km": 844.943307969409,
        "timestamp": "2025-12-20T07:33:50.443387+00:00",
        "meta_object_name": "DMSP 5D-3 F17 (USA 191)",
        "meta_object_id": "2006-050A",
        "meta_epoch": "2025-12-19T21:54:29.106432",
        "meta_mean_motion": 14.14922582,
        "meta_eccentricity": 0.00097036,
        "meta_inclination": 98.739,
        "meta_ra_of_asc_node": 359.1526,
        "meta_arg_of_pericenter": 203.2135,
        "meta_mean_anomaly": 156.8602,
        "meta_ephemeris_type": 0,
        "meta_classification_type": "U",
        "meta_norad_cat_id": 29522,
        "meta_element_set_no": 999,
        "meta_rev_at_epoch": 98706,
        "meta_bstar": 8.716928e-05,
        "meta_mean_motion_dot": 1.25e-06,
        "meta_mean_motion_ddot": 0,
        "tle_line1": "1 29522U 06050A   25353.91283688  .00000125  00000+0  87169-4 0  9996",
        "tle_line2": "2 29522  98.7390 359.1526 0009703 203.2135 156.8602 14.14922582987060"
      },
      "geometry": {
        "type": "Point",
        "coordinates": [
          158.52954184151673,
          -66.78645780889553
        ]
      }
    },
    {
      "type": "Feature",
      "properties": {
        "norad_id": 32958,
        "name": "FENGYUN 3A",
        "group": "weather",
        "lat": 80.95030163076335,
        "lon": -139.6623291494534,
        "alt_km": 824.7741390748524,
        "timestamp": "2025-12-20T07:33:50.443402+00:00",
        "meta_object_name": "FENGYUN 3A",
        "meta_object_id": "2008-026A",
        "meta_epoch": "2025-12-19T14:14:12.505056",
        "meta_mean_motion": 14.19516596,
        "meta_eccentricity": 0.0007684,
        "meta_inclination": 98.6705,
        "meta_ra_of_asc_node": 292.9758,
        "meta_arg_of_pericenter": 288.4847,
        "meta_mean_anomaly": 71.5494,
        "meta_ephemeris_type": 0,
        "meta_classification_type": "U",
        "meta_norad_cat_id": 32958,
        "meta_element_set_no": 999,
        "meta_rev_at_epoch": 90992,
        "meta_bstar": 5.2028e-05,
        "meta_mean_motion_dot": 6.6e-07,
        "meta_mean_motion_ddot": 0,
        "tle_line1": "1 32958U 08026A   25353.59320029  .00000066  00000+0  52028-4 0  9993",
        "tle_line2": "2 32958  98.6705 292.9758 0007684 288.4847  71.5494 14.19516596909928"
      },
      "geometry": {
        "type": "Point",
        "coordinates": [
          -139.6623291494534,
          80.95030163076335
        ]
      }
    },
    {
      "type": "Feature",
      "properties": {
        "norad_id": 35491,
        "name": "GOES 14",
        "group": "weather",
        "lat": 0.08612046024889525,
        "lon": 88.06658844986309,
        "alt_km": 35837.336808191634,
        "timestamp": "2025-12-20T07:33:50.443418+00:00",
        "meta_object_name": "GOES 14",
        "meta_object_id": "2009-033A",
        "meta_epoch": "2025-12-19T11:12:46.867104",
        "meta_mean_motion": 1.00096833,
        "meta_eccentricity": 5.13e-05,
        "meta_inclination": 1.2203,
        "meta_ra_of_asc_node": 85.3391,
        "meta_arg_of_pericenter": 179.3818,
        "meta_mean_anomaly": 237.7883,
        "meta_ephemeris_type": 0,
        "meta_classification_type": "U",
        "meta_norad_cat_id": 35491,
        "meta_element_set_no": 999,
        "meta_rev_at_epoch": 479,
        "meta_bstar": 0,
        "meta_mean_motion_dot": 1.8e-07,
        "meta_mean_motion_ddot": 0,
        "tle_line1": "1 35491U 09033A   25353.46720911  .00000018  00000+0  00000+0 0  9992",
        "tle_line2": "2 35491   1.2203  85.3391 0000513 179.3818 237.7883  1.00096833  4795"
      },
      "geometry": {
        "type": "Point",
        "coordinates": [
          88.06658844986309,
          0.08612046024889525
        ]
      }
    },
    {
      "type": "Feature",
      "properties": {
        "norad_id": 35951,
        "name": "DMSP 5D-3 F18 (USA 210)",
        "group": "weather",
        "lat": 66.47477827489453,
        "lon": 171.73466041263833,
        "alt_km": 833.4894547002887,
        "timestamp": "2025-12-20T07:33:50.443431+00:00",
        "meta_object_name": "DMSP 5D-3 F18 (USA 210)",
        "meta_object_id": "2009-057A",
        "meta_epoch": "2025-12-19T22:33:06.104736",
        "meta_mean_motion": 14.14773719,
        "meta_eccentricity": 0.00118934,
        "meta_inclination": 98.8841,
        "meta_ra_of_asc_node": 330.3046,
        "meta_arg_of_pericenter": 43.8068,
        "meta_mean_anomaly": 316.4047,
        "meta_ephemeris_type": 0,
        "meta_classification_type": "U",
        "meta_norad_cat_id": 35951,
        "meta_element_set_no": 999,
        "meta_rev_at_epoch": 83424,
        "meta_bstar": 0.00013015064,
        "meta_mean_motion_dot": 2.07e-06,
        "meta_mean_motion_ddot": 0,
        "tle_line1": "1 35951U 09057A   25353.93965399  .00000207  00000+0  13015-3 0  9996",
        "tle_line2": "2 35951  98.8841 330.3046 0011893  43.8068 316.4047 14.14773719834243"
      },
      "geometry": {
        "type": "Point",
        "coordinates": [
          171.73466041263833,
          66.47477827489453
        ]
      }
    },
    {
      "type": "Feature",
      "properties": {
        "norad_id": 36411,
        "name": "EWS-G2 (GOES 15)",
        "group": "weather",
        "lat": 0.0029085651370457035,
        "lon": -96.03056630876763,
        "alt_km": 35763.12653087124,
        "timestamp": "2025-12-20T07:33:50.443445+00:00",
        "meta_object_name": "EWS-G2 (GOES 15)",
        "meta_object_id": "2010-008A",
        "meta_epoch": "2025-12-19T20:34:05.392704",
        "meta_mean_motion": 1.00270915,
        "meta_eccentricity": 0.00054664,
        "meta_inclination": 0.8304,
        "meta_ra_of_asc_node": 86.0831,
        "meta_arg_of_pericenter": 177.2487,
        "meta_mean_anomaly": 195.2571,
        "meta_ephemeris_type": 0,
        "meta_classification_type": "U",
        "meta_norad_cat_id": 36411,
        "meta_element_set_no": 999,
        "meta_rev_at_epoch": 5784,
        "meta_bstar": 0,
        "meta_mean_motion_dot": 6.2e-07,
        "meta_mean_motion_ddot": 0,
        "tle_line1": "1 36411U 10008A   25353.85700686  .00000062  00000+0  00000+0 0  9998",
        "tle_line2": "2 36411   0.8304  86.0831 0005466 177.2487 195.2571  1.00270915 57844"
      },
      "geometry": {
        "type": "Point",
        "coordinates": [
          -96.03056630876763,
          0.0029085651370457035
        ]
      }
    }
  ]
}